OBJECT_NAME,OBJECT_ID,EPOCH,MEAN_MOTION,ECCENTRICITY,INCLINATION,RA_OF_ASC_NODE,ARG_OF_PERICENTER,MEAN_ANOMALY,EPHEMERIS_TYPE,CLASSIFICATION_TYPE,NORAD_CAT_ID,ELEMENT_SET_NO,REV_AT_EPOCH,BSTAR,MEAN_MOTION_DOT,MEAN_MOTION_DDOT
SYRACUSE 4B,2023-093B,2026-07-01T10:34:31.918080,1.00269364,.00003037,0.0240,39.8864,126.6370,265.1484,0,U,57214,999,710,0,0,0
JUPITER 3 (ECHOSTAR 24),2023-108A,2026-06-30T11:46:41.440224,1.00269344,.00011569,0.0234,28.2866,68.3450,263.3815,0,U,57479,999,1078,0,0,0
GALAXY 37 (G-37),2023-112A,2026-07-01T13:37:05.668608,1.00271422,.00021286,0.0173,339.8436,121.1574,255.8906,0,U,57493,999,1068,0,.59E-6,0
LUDI TANCE-4 01A,2023-120A,2026-07-01T19:49:50.102976,1.00266926,.0001281,15.0947,193.6070,17.4858,95.7535,0,U,57624,999,1069,0,-.162E-5,0
TJS-10,2023-169A,2026-07-01T17:53:22.837344,1.00270067,.0004165,2.5799,80.3263,104.0173,96.2322,0,U,58204,999,968,0,-.24E-5,0
ZHONGXING-6E,2023-172A,2026-07-01T06:24:38.609856,1.00272636,.0002595,0.0252,274.2490,183.6339,33.1271,0,U,58253,999,980,0,-.351E-5,0
YAOGAN-41,2023-197A,2026-07-01T14:36:54.383328,1.00273939,.00143636,3.1032,313.3497,195.9542,112.7845,0,U,58582,999,946,0,-.349E-5,0
OVZON-3,2024-003A,2026-07-01T14:14:41.682336,1.00271617,.00002392,0.0151,63.9185,36.6873,92.4153,0,U,58698,999,759,0,0,0
INSAT-3DS,2024-033A,2026-07-01T10:59:51.987840,1.00269654,.00014529,0.0700,97.3054,354.8248,74.3916,0,U,58990,999,4721,0,-.145E-5,0
MERAH PUTIH 2,2024-035A,2026-07-01T14:33:54.669600,1.00270690,.00013738,0.0158,319.2025,123.0849,168.7993,0,U,58995,999,873,0,-.347E-5,0
TJS-11,2024-037A,2026-06-29T15:34:09.330240,1.00270550,.0003431,4.1831,327.2324,121.1853,175.5098,0,U,59020,999,870,0,-.349E-5,0
HULIANWAN GAOGUI-01 (HG-01),2024-040A,2026-07-01T03:55:24.292704,1.00272863,.00026879,0.0695,333.3440,75.9282,322.3924,0,U,59069,999,746,0,.166E-5,0
EUTELSAT 36D,2024-059A,2026-07-01T06:16:38.694144,1.00270553,.00003874,0.0254,43.5149,81.3557,284.4474,0,U,59346,999,828,0,0,0
PAKSAT-MM1,2024-104A,2026-07-01T14:12:39.623328,1.00274852,.00026878,0.0087,256.0362,180.5439,94.4166,0,U,59915,999,767,0,.164E-5,0
ASTRA 1P (SES-24),2024-115A,2026-07-01T14:07:10.149888,1.00269872,.00003885,0.0601,342.8400,159.4587,8.3441,0,U,60086,999,734,0,.13E-5,0
GOES 19,2024-119A,2026-07-01T11:57:39.132576,1.00271599,.00005268,0.0101,80.9326,71.7609,231.0820,0,U,60133,999,710,0,-.238E-5,0
ZHONGXING-3A,2024-122A,2026-07-01T14:30:39.981888,1.00276406,.0001711,0.0347,112.7027,13.4089,112.7870,0,U,60179,999,745,0,-.304E-5,0
TURKSAT 6A,2024-127A,2026-07-01T10:48:15.601248,1.00269394,.00027319,0.0152,220.9930,286.8028,335.7756,0,U,60233,999,716,0,0,0
HULIANWAN GAOGUI-02 (HG-02),2024-135A,2026-07-01T14:45:06.014880,1.00268199,.0006987,0.0441,356.1189,15.2077,282.6697,0,U,60327,999,764,0,-.164E-5,0
ZHONGXING-4A,2024-151A,2026-06-30T16:20:57.895296,1.00267177,.00006713,1.2809,270.6482,223.8119,147.6874,0,U,60606,999,689,0,-.351E-5,0
HULIANWAN GAOGUI-03 (HG-03),2024-181A,2026-07-01T01:41:10.376736,1.00270233,.00015046,0.0471,0.6800,86.3247,140.2966,0,U,61503,999,696,0,-.231E-5,0
DSN-3 (KIRAMEKI-3),2024-198A,2026-07-01T14:28:17.613696,1.00272226,.00010163,0.0184,28.5610,87.6664,164.5660,0,U,61733,999,606,0,-.239E-5,0
KOREASAT 6A,2024-206A,2026-07-01T14:34:47.085888,1.00269719,.00008846,0.0140,75.5183,11.2968,167.5509,0,U,61910,999,598,0,-.351E-5,0
OPTUS-X (ADS-01),2024-212A,2026-07-01T14:21:14.921568,1.00275050,.0002402,0.0276,288.2674,213.4579,149.6413,0,U,62006,999,590,0,-.132E-5,0
GSAT-N2 (GSAT-20),2024-214A,2026-07-01T12:38:27.718944,1.00272833,.00021872,0.0679,98.4678,353.4595,85.2154,0,U,62028,999,604,0,-.9E-7,0
SXM-9,2024-234A,2026-07-01T06:46:49.479168,1.00270531,.00046451,0.0133,348.2382,331.0150,336.6299,0,U,62259,999,571,0,-.195E-5,0
TJS-12,2024-246A,2026-07-01T06:10:17.239872,1.00273755,.0002307,0.6411,300.4955,105.0362,112.8961,0,U,62374,999,570,0,-.219E-5,0
NUVIEW ALPHA,2024-252B,2026-07-01T11:55:24.347712,1.00271075,.00011156,0.0489,31.0244,44.2889,299.9786,0,U,62455,999,396,0,-.205E-5,0
AGILA,2024-252C,2026-07-01T14:23:14.784288,1.00271595,.00010965,0.0607,125.7546,354.1353,167.7326,0,U,62456,999,530,0,-.171E-5,0
NUVIEW BRAVO,2024-252D,2026-07-01T11:55:24.347712,1.00271792,.00016905,0.0704,161.1296,336.8654,237.2959,0,U,62457,999,393,0,-.205E-5,0
THURAYA-4,2025-001A,2026-07-01T14:14:16.966752,1.00272268,.00001771,0.0213,64.7232,23.2285,89.5637,0,U,62483,999,432,0,.15E-5,0
SHIJIAN-25 (SJ-25),2025-002A,2026-07-01T18:38:23.524224,1.00273187,.0051545,5.1458,61.0748,174.7702,90.9071,0,U,62485,999,550,0,-.342E-5,0
