SYRACUSE 4B             
1 57214U 23093B   26182.44064720  .00000000  00000+0  00000+0 0  9990
2 57214   0.0240  39.8864 0000303 126.6370 265.1484  1.00269364  7105
JUPITER 3 (ECHOSTAR 24) 
1 57479U 23108A   26181.49075741  .00000000  00000+0  00000+0 0  9999
2 57479   0.0234  28.2866 0001156  68.3450 263.3815  1.00269344 10787
GALAXY 37 (G-37)        
1 57493U 23112A   26182.56742672  .00000059  00000+0  00000+0 0  9997
2 57493   0.0173 339.8436 0002128 121.1574 255.8906  1.00271422 10680
LUDI TANCE-4 01A        
1 57624U 23120A   26182.82627434 -.00000162  00000+0  00000+0 0  9995
2 57624  15.0947 193.6070 0001281  17.4858  95.7535  1.00266926 10695
TJS-10                  
1 58204U 23169A   26182.74540321 -.00000240  00000+0  00000+0 0  9990
2 58204   2.5799  80.3263 0004165 104.0173  96.2322  1.00270067  9687
ZHONGXING-6E            
1 58253U 23172A   26182.26711354 -.00000351  00000+0  00000+0 0  9994
2 58253   0.0252 274.2490 0002595 183.6339  33.1271  1.00272636  9807
YAOGAN-41               
1 58582U 23197A   26182.60896277 -.00000349  00000+0  00000+0 0  9999
2 58582   3.1032 313.3497 0014363 195.9542 112.7845  1.00273939  9462
OVZON-3                 
1 58698U 24003A   26182.59353799  .00000000  00000+0  00000+0 0  9992
2 58698   0.0151  63.9185 0000239  36.6873  92.4153  1.00271617  7594
INSAT-3DS               
1 58990U 24033A   26182.45824060 -.00000145  00000+0  00000+0 0  9990
2 58990   0.0700  97.3054 0001452 354.8248  74.3916  1.00269654 47211
MERAH PUTIH 2           
1 58995U 24035A   26182.60688275 -.00000347  00000+0  00000+0 0  9994
2 58995   0.0158 319.2025 0001373 123.0849 168.7993  1.00270690  8731
TJS-11                  
1 59020U 24037A   26180.64871910 -.00000349  00000+0  00000+0 0  9990
2 59020   4.1831 327.2324 0003431 121.1853 175.5098  1.00270550  8700
HULIANWAN GAOGUI-01 (H*)
1 59069U 24040A   26182.16347561  .00000166  00000+0  00000+0 0  9992
2 59069   0.0695 333.3440 0002687  75.9282 322.3924  1.00272863  7468
EUTELSAT 36D            
1 59346U 24059A   26182.26155896  .00000000  00000+0  00000+0 0  9996
2 59346   0.0254  43.5149 0000387  81.3557 284.4474  1.00270553  8287
PAKSAT-MM1              
1 59915U 24104A   26182.59212527  .00000164  00000+0  00000+0 0  9991
2 59915   0.0087 256.0362 0002687 180.5439  94.4166  1.00274852  7672
ASTRA 1P (SES-24)       
1 60086U 24115A   26182.58831192  .00000130  00000+0  00000+0 0  9991
2 60086   0.0601 342.8400 0000388 159.4587   8.3441  1.00269872  7347
GOES 19                 
1 60133U 24119A   26182.49836959 -.00000238  00000+0  00000+0 0  9994
2 60133   0.0101  80.9326 0000526  71.7609 231.0820  1.00271599  7106
ZHONGXING-3A            
1 60179U 24122A   26182.60462942 -.00000304  00000+0  00000+0 0  9992
2 60179   0.0347 112.7027 0001711  13.4089 112.7870  1.00276406  7452
TURKSAT 6A              
1 60233U 24127A   26182.45018057  .00000000  00000+0  00000+0 0  9997
2 60233   0.0152 220.9930 0002731 286.8028 335.7756  1.00269394  7160
HULIANWAN GAOGUI-02 (H*)
1 60327U 24135A   26182.61465295 -.00000164  00000+0  00000+0 0  9990
2 60327   0.0441 356.1189 0006987  15.2077 282.6697  1.00268199  7647
ZHONGXING-4A            
1 60606U 24151A   26181.68122564 -.00000351  00000+0  00000+0 0  9991
2 60606   1.2809 270.6482 0000671 223.8119 147.6874  1.00267177  6890
HULIANWAN GAOGUI-03 (H*)
1 61503U 24181A   26182.07025899 -.00000231  00000+0  00000+0 0  9995
2 61503   0.0471   0.6800 0001504  86.3247 140.2966  1.00270233  6960
DSN-3 (KIRAMEKI-3)      
1 61733U 24198A   26182.60298164 -.00000239  00000+0  00000+0 0  9992
2 61733   0.0184  28.5610 0001016  87.6664 164.5660  1.00272226  6064
KOREASAT 6A             
1 61910U 24206A   26182.60748942 -.00000351  00000+0  00000+0 0  9998
2 61910   0.0140  75.5183 0000884  11.2968 167.5509  1.00269719  5980
OPTUS-X (ADS-01)        
1 62006U 24212A   26182.59808937 -.00000132  00000+0  00000+0 0  9998
2 62006   0.0276 288.2674 0002402 213.4579 149.6413  1.00275050  5909
GSAT-N2 (GSAT-20)       
1 62028U 24214A   26182.52670971 -.00000009  00000+0  00000+0 0  9995
2 62028   0.0679  98.4678 0002187 353.4595  85.2154  1.00272833  6047
SXM-9                   
1 62259U 24234A   26182.28251712 -.00000195  00000+0  00000+0 0  9990
2 62259   0.0133 348.2382 0004645 331.0150 336.6299  1.00270531  5715
TJS-12                  
1 62374U 24246A   26182.25714398 -.00000219  00000+0  00000+0 0  9999
2 62374   0.6411 300.4955 0002307 105.0362 112.8961  1.00273755  5701
NUVIEW ALPHA            
1 62455U 24252B   26182.49680958 -.00000205  00000+0  00000+0 0  9991
2 62455   0.0489  31.0244 0001115  44.2889 299.9786  1.00271075  3963
AGILA                   
1 62456U 24252C   26182.59947667 -.00000171  00000+0  00000+0 0  9998
2 62456   0.0607 125.7546 0001096 354.1353 167.7326  1.00271595  5308
NUVIEW BRAVO            
1 62457U 24252D   26182.49680958 -.00000205  00000+0  00000+0 0  9993
2 62457   0.0704 161.1296 0001690 336.8654 237.2959  1.00271792  3935
THURAYA-4               
1 62483U 25001A   26182.59325193  .00000150  00000+0  00000+0 0  9991
2 62483   0.0213  64.7232 0000177  23.2285  89.5637  1.00272268  4327
SHIJIAN-25 (SJ-25)      
1 62485U 25002A   26182.77666116 -.00000342  00000+0  00000+0 0  9991
2 62485   5.1458  61.0748 0051545 174.7702  90.9071  1.00273187  5509
